NORAD_CAT_ID,OBJECT_NAME,OBJECT_TYPE,EPOCH,MEAN_MOTION,ECCENTRICITY,INCLINATION,RA_OF_ASC_NODE,ARG_OF_PERICENTER,MEAN_ANOMALY,BSTAR,MEAN_MOTION_DOT,MEAN_MOTION_DDOT,TLE_LINE0,TLE_LINE1,TLE_LINE2,SEMIMAJOR_AXIS,PERIOD,APOGEE,PERIGEE,DECAYED
51143.0,STARLINK-3184,PAYLOAD,2024-07-02 07:34:53,15.08838963,0.0001389,53.2163,191.6434,91.3727,268.7424,5.0274e-05,5.12e-06,0.0,0 STARLINK-3184,1 51143U 22005AR  24184.31590200  .00000512  00000-0  50274-4 0  9992,2 51143  53.2163 191.6434 0001389  91.3727 268.7424 15.08838963136806,6917.884,95.438,540.709,538.788,0.0
51143.0,STARLINK-3184,PAYLOAD,2024-07-02 17:07:12,15.08841933,0.0001384,53.2164,189.8596,91.3649,268.7502,3.9735e-05,3.45e-06,0.0,0 STARLINK-3184,1 51143U 22005AR  24184.71333997  .00000345  00000-0  39735-4 0  9997,2 51143  53.2164 189.8596 0001384  91.3649 268.7502 15.08841933135754,6917.874,95.437,540.697,538.782,0.0
51143.0,STARLINK-3184,PAYLOAD,2024-07-03 09:01:04,15.08835104,0.0001408,53.2171,186.8865,92.8412,267.2741,1.2188e-05,-9.4e-07,0.0,0 STARLINK-3184,1 51143U 22005AR  24185.37574601 -.00000094  00000-0  12188-4 0  9994,2 51143  53.2171 186.8865 0001408  92.8412 267.2741 15.08835104136965,6917.895,95.438,540.734,538.786,0.0
51143.0,STARLINK-3184,PAYLOAD,2024-07-03 16:57:59,15.08838592,0.000141,53.2172,185.3997,92.7667,267.3486,2.1178e-05,4.9e-07,0.0,0 STARLINK-3184,1 51143U 22005AR  24185.70694387  .00000049  00000-0  21178-4 0  9993,2 51143  53.2172 185.3997 0001410  92.7667 267.3486 15.08838592135904,6917.885,95.438,540.725,538.774,0.0
51143.0,STARLINK-3184,PAYLOAD,2024-07-04 08:51:51,15.08838885,0.0001382,53.2169,182.4256,90.4516,269.6635,3.8622e-05,3.27e-06,0.0,0 STARLINK-3184,1 51143U 22005AR  24186.36934396  .00000327  00000-0  38622-4 0  9994,2 51143  53.2169 182.4256 0001382  90.4516 269.6635 15.08838885136000,6917.884,95.438,540.705,538.793,0.0
51143.0,STARLINK-3184,PAYLOAD,2024-07-04 16:48:46,15.08841738,0.0001383,53.2168,180.9385,86.0343,274.0807,4.1507e-05,3.73e-06,0.0,0 STARLINK-3184,1 51143U 22005AR  24186.70054198  .00000373  00000-0  41507-4 0  9992,2 51143  53.2168 180.9385 0001383  86.0343 274.0807 15.08841738137165,6917.875,95.437,540.697,538.783,0.0
51143.0,STARLINK-3184,PAYLOAD,2024-07-04 23:10:19,15.08836758,0.0001368,53.2165,179.7488,85.4785,274.6364,7.4098e-05,8.91e-06,0.0,0 STARLINK-3184,1 51143U 22005AR  24186.96550432  .00000891  00000-0  74098-4 0  9998,2 51143  53.2165 179.7488 0001368  85.4785 274.6364 15.08836758136099,6917.89,95.438,540.702,538.809,0.0
51143.0,STARLINK-3184,PAYLOAD,2024-07-05 07:07:15,15.08837593,0.0001382,53.2164,178.2618,85.0818,275.0332,6.7136e-05,7.81e-06,0.0,0 STARLINK-3184,1 51143U 22005AR  24187.29670483  .00000781  00000-0  67136-4 0  9997,2 51143  53.2164 178.2618 0001382  85.0818 275.0332 15.08837593136140,6917.888,95.438,540.709,538.797,0.0
51143.0,STARLINK-3184,PAYLOAD,2024-07-05 23:01:06,15.0883957,0.0001491,53.2171,175.289,85.8329,274.2834,4.9029e-05,4.92e-06,0.0,0 STARLINK-3184,1 51143U 22005AR  24187.95910463  .00000492  00000-0  49029-4 0  9995,2 51143  53.2171 175.2890 0001491  85.8329 274.2834 15.08839570136249,6917.882,95.438,540.778,538.715,0.0
51143.0,STARLINK-3184,PAYLOAD,2024-07-06 05:22:39,15.08837645,0.000128,53.216,174.0993,90.3141,269.7998,4.5722e-05,4.4e-06,0.0,0 STARLINK-3184,1 51143U 22005AR  24188.22406534  .00000440  00000-0  45722-4 0  9994,2 51143  53.2160 174.0993 0001280  90.3141 269.7998 15.08837645137395,6917.888,95.438,540.638,538.867,0.0
51143.0,STARLINK-3184,PAYLOAD,2024-07-06 08:33:25,15.08842222,0.0001304,53.2163,173.5046,88.5489,271.5652,2.0533e-05,3.9e-07,0.0,0 STARLINK-3184,1 51143U 22005AR  24188.35654347  .00000039  00000-0  20533-4 0  9992,2 51143  53.2163 173.5046 0001304  88.5489 271.5652 15.08842222136307,6917.874,95.437,540.641,538.837,0.0
51143.0,STARLINK-3184,PAYLOAD,2024-07-06 22:51:53,15.08829183,0.0001368,53.2166,170.8272,94.0349,266.08,0.00015243,2.138e-05,0.0,0 STARLINK-3184,1 51143U 22005AR  24188.95270629  .00002138  00000-0  15243-3 0  9998,2 51143  53.2166 170.8272 0001368  94.0349 266.0800 15.08829183136392,6917.913,95.438,540.725,538.832,0.0
51143.0,STARLINK-3184,PAYLOAD,2024-07-07 08:24:12,15.08839825,0.0001422,53.2167,169.0432,93.665,266.4505,2.3386e-05,8.4e-07,0.0,0 STARLINK-3184,1 51143U 22005AR  24189.35014391  .00000084  00000-0  23386-4 0  9991,2 51143  53.2167 169.0432 0001422  93.6650 266.4505 15.08839825137562,6917.881,95.438,540.73,538.762,0.0
51143.0,STARLINK-3184,PAYLOAD,2024-07-08 08:14:59,15.08840516,0.0001439,53.2171,164.5826,95.892,264.2236,3.1331e-05,2.11e-06,0.0,0 STARLINK-3184,1 51143U 22005AR  24190.34374289  .00000211  00000-0  31331-4 0  9998,2 51143  53.2171 164.5826 0001439  95.8920 264.2236 15.08840516136606,6917.879,95.438,540.739,538.748,0.0
51143.0,STARLINK-3184,PAYLOAD,2024-07-09 04:55:00,15.08834699,0.0001409,53.2169,160.7162,95.568,264.5473,1.4731e-05,-5.4e-07,0.0,0 STARLINK-3184,1 51143U 22005AR  24191.20486785 -.00000054  00000-0  14731-4 0  9990,2 51143  53.2169 160.7162 0001409  95.5680 264.5473 15.08834699137849,6917.897,95.438,540.736,538.787,0.0
51143.0,STARLINK-3184,PAYLOAD,2024-07-09 14:27:18,15.08841822,0.0001355,53.2168,158.9338,90.4669,269.6479,4.9437e-05,4.99e-06,0.0,0 STARLINK-3184,1 51143U 22005AR  24191.60230269  .00000499  00000-0  49437-4 0  9991,2 51143  53.2168 158.9338 0001355  90.4669 269.6479 15.08841822136794,6917.875,95.437,540.677,538.802,0.0
51143.0,STARLINK-3184,PAYLOAD,2024-07-10 04:45:48,15.08829342,0.0001301,53.2177,156.2595,94.7468,265.3673,-2.8986e-05,-7.49e-06,0.0,0 STARLINK-3184,1 51143U 22005AR  24192.19847532 -.00000749  00000-0 -28986-4 0  9999,2 51143  53.2177 156.2595 0001301  94.7468 265.3673 15.08829342137990,6917.913,95.438,540.678,538.878,0.0
51143.0,STARLINK-3184,PAYLOAD,2024-07-10 14:18:06,15.08840174,0.0001526,53.2189,154.4751,96.6532,263.4634,-1.6665e-05,-5.53e-06,0.0,0 STARLINK-3184,1 51143U 22005AR  24192.59590957 -.00000553  00000-0 -16665-4 0  9993,2 51143  53.2189 154.4751 0001526  96.6532 263.4634 15.08840174136945,6917.88,95.438,540.801,538.689,0.0
51143.0,STARLINK-3184,PAYLOAD,2024-07-11 03:01:12,15.0883054,0.0001473,53.2189,152.0972,97.9765,262.1394,2.2811e-05,7.5e-07,0.0,0 STARLINK-3184,1 51143U 22005AR  24193.12583611  .00000075  00000-0  22811-4 0  9999,2 51143  53.2189 152.0972 0001473  97.9765 262.1394 15.08830540138135,6917.909,95.438,540.793,538.755,0.0
51143.0,STARLINK-3184,PAYLOAD,2024-07-12 04:27:22,15.08836079,0.0001379,53.2182,147.3362,92.4599,267.6551,0.00013879,1.921e-05,0.0,0 STARLINK-3184,1 51143U 22005AR  24194.18567177  .00001921  00000-0  13879-3 0  9999,2 51143  53.2182 147.3362 0001379  92.4599 267.6551 15.08836079138293,6917.892,95.438,540.711,538.803,0.0
51143.0,STARLINK-3184,PAYLOAD,2024-07-12 13:59:40,15.08845856,0.0001413,53.2182,145.5513,85.2691,274.8463,7.5113e-05,9.08e-06,0.0,0 STARLINK-3184,1 51143U 22005AR  24194.58310791  .00000908  00000-0  75113-4 0  9995,2 51143  53.2182 145.5513 0001413  85.2691 274.8463 15.08845856137242,6917.862,95.437,540.705,538.75,0.0
51143.0,STARLINK-3184,PAYLOAD,2024-07-13 13:50:26,15.08853929,0.0001294,53.2168,141.0903,89.3558,270.7582,0.00015635,2.202e-05,0.0,0 STARLINK-3184,1 51143U 22005AR  24195.57669991  .00002202  00000-0  15635-3 0  9995,2 51143  53.2168 141.0903 0001294  89.3558 270.7582 15.08853929137397,6917.838,95.437,540.598,538.808,0.0
51143.0,STARLINK-3184,PAYLOAD,2024-07-14 02:33:33,15.08837281,0.0001322,53.2179,138.7114,88.1886,271.9257,-3.8248e-05,-8.97e-06,0.0,0 STARLINK-3184,1 51143U 22005AR  24196.10663569 -.00000897  00000-0 -38248-4 0  9996,2 51143  53.2179 138.7114 0001322  88.1886 271.9257 15.08837281138586,6917.889,95.438,540.668,538.839,0.0
51143.0,STARLINK-3184,PAYLOAD,2024-07-14 05:44:19,15.08844612,0.0001501,53.2174,138.1155,91.9454,268.171,1.3753e-05,-6.9e-07,0.0,0 STARLINK-3184,1 51143U 22005AR  24196.23910945 -.00000069  00000-0  13753-4 0  9997,2 51143  53.2174 138.1155 0001501  91.9454 268.1710 15.08844612138603,6917.866,95.437,540.77,538.693,0.0
51143.0,STARLINK-3184,PAYLOAD,2024-07-14 13:41:14,15.08849124,0.0001653,53.2188,136.6299,93.5129,266.6052,5.4962e-05,5.87e-06,0.0,0 STARLINK-3184,1 51143U 22005AR  24196.57030468  .00000587  00000-0  54962-4 0  9998,2 51143  53.2188 136.6299 0001653  93.5129 266.6052 15.08849124137542,6917.853,95.437,540.861,538.574,0.0
51143.0,STARLINK-3184,PAYLOAD,2024-07-15 02:24:20,15.08835521,0.000183,53.2187,134.2507,101.119,259.0008,1.9573e-05,2.3e-07,0.0,0 STARLINK-3184,1 51143U 22005AR  24197.10023425  .00000023  00000-0  19573-4 0  9997,2 51143  53.2187 134.2507 0001830 101.1190 259.0008 15.08835521138733,6917.894,95.438,541.025,538.493,0.0
51143.0,STARLINK-3184,PAYLOAD,2024-07-15 05:35:06,15.08844283,0.0001759,53.2169,133.6559,101.4806,258.6383,-4.046e-05,-9.32e-06,0.0,0 STARLINK-3184,1 51143U 22005AR  24197.23271149 -.00000932  00000-0 -40460-4 0  9999,2 51143  53.2169 133.6559 0001759 101.4806 258.6383 15.08844283137645,6917.867,95.437,540.949,538.515,0.0
51143.0,STARLINK-3184,PAYLOAD,2024-07-16 02:15:07,15.08831203,0.0001322,53.2167,129.7904,92.3954,267.719,4.208e-05,3.82e-06,0.0,0 STARLINK-3184,1 51143U 22005AR  24198.09383551  .00000382  00000-0  42080-4 0  9992,2 51143  53.2167 129.7904 0001322  92.3954 267.7190 15.08831203138883,6917.907,95.438,540.687,538.858,0.0
51143.0,STARLINK-3184,PAYLOAD,2024-07-16 05:25:53,15.08828959,0.0001437,53.2169,129.196,95.2239,264.8917,7.7452e-05,9.45e-06,0.0,0 STARLINK-3184,1 51143U 22005AR  24198.22631640  .00000945  00000-0  77452-4 0  9998,2 51143  53.2169 129.1960 0001437  95.2239 264.8917 15.08828959137794,6917.914,95.438,540.773,538.785,0.0
51143.0,STARLINK-3184,PAYLOAD,2024-07-17 02:05:53,15.08840703,0.0001438,53.218,125.3302,99.8303,260.2852,8.8886e-05,1.127e-05,0.0,0 STARLINK-3184,1 51143U 22005AR  24199.08742925  .00001127  00000-0  88886-4 0  9998,2 51143  53.2180 125.3302 0001438  99.8303 260.2852 15.08840703139036,6917.878,95.438,540.738,538.748,0.0
